LYNK TOWER 5            
1 59121U 24043Z   26068.92489786  .00009048  00000+0  31902-3 0  9994
2 59121  97.5458 204.7305 0010406 234.6422 125.3846 15.29454506111860
STARLINK-35884          
1 67044U 25294Q   26068.95097183  .00027168  00000+0  99283-3 0  9994
2 67044  42.9978  36.2104 0000791 155.0667 205.0223 15.27590416 14846
